[
    {
        "Altitude(m)": 555047.6516234953,
        "Argument of Periapsis(deg)": 0.033114955553567506,
        "Eccentricity": 0.0,
        "Inclination(deg)": 53.0,
        "Latitude(deg)": 29.9764040131006,
        "Longitude(deg)": 65.40056360227005,
        "Mean Anomaly(deg)": 141.3671643378879,
        "RAAN(deg)": 14.95071684264008,
        "Satellite Name": "Starlink Shell 1 71",
        "Satellite Number": 71,
        "Semi-Major Axis(m)": 6931778.249405717,
        "Time(s)": 950
    },
    {
        "Altitude(m)": 554975.0997832769,
        "Argument of Periapsis(deg)": 0.03346353403307874,
        "Eccentricity": 0.0,
        "Inclination(deg)": 53.0,
        "Latitude(deg)": 29.521978103752005,
        "Longitude(deg)": 65.85826228782385,
        "Mean Anomaly(deg)": 141.99399554144466,
        "RAAN(deg)": 14.95019807256261,
        "Satellite Name": "Starlink Shell 1 71",
        "Satellite Number": 71,
        "Semi-Major Axis(m)": 6931778.249405717,
        "Time(s)": 960
    },
    {
        "Altitude(m)": 554903.6655107894,
        "Argument of Periapsis(deg)": 0.03381211251258998,
        "Eccentricity": 0.0,
        "Inclination(deg)": 53.0,
        "Latitude(deg)": 29.065665026699634,
        "Longitude(deg)": 66.31151624028477,
        "Mean Anomaly(deg)": 142.62082674500135,
        "RAAN(deg)": 14.949679302485137,
        "Satellite Name": "Starlink Shell 1 71",
        "Satellite Number": 71,
        "Semi-Major Axis(m)": 6931778.249405717,
        "Time(s)": 970
    },
    {
        "Altitude(m)": 554833.4019382069,
        "Argument of Periapsis(deg)": 0.034160690992101214,
        "Eccentricity": 0.0,
        "Inclination(deg)": 53.0,
        "Latitude(deg)": 28.60751515120578,
        "Longitude(deg)": 66.76042850653762,
        "Mean Anomaly(deg)": 143.24765794855807,
        "RAAN(deg)": 14.949160532407664,
        "Satellite Name": "Starlink Shell 1 71",
        "Satellite Number": 71,
        "Semi-Major Axis(m)": 6931778.249405717,
        "Time(s)": 980
    },
    {
        "Altitude(m)": 554764.361799533,
        "Argument of Periapsis(deg)": 0.034509269471612446,
        "Eccentricity": 0.0,
        "Inclination(deg)": 53.0,
        "Latitude(deg)": 28.147577742754418,
        "Longitude(deg)": 67.20510132188457,
        "Mean Anomaly(deg)": 143.87448915211482,
        "RAAN(deg)": 14.948641762330194,
        "Satellite Name": "Starlink Shell 1 71",
        "Satellite Number": 71,
        "Semi-Major Axis(m)": 6931778.249405717,
        "Time(s)": 990
    }
]